#dP2024 12 19  0  0  0.00000000      96 __u+U IGS20 EXT  IAC
## 2345 345600.00000000   900.00000000 60663 0.0000000000000
+   52   G02G03G04G05G06G07G08G09G10G11G12G13G14G15G16G17G18
+        G19G20G21G22G23G24G25G26G27G28G29G30G31G32R01R02R03
+        R04R05R07R08R09R11R12R14R15R16R17R18R19R20R21R22R24
+        R26  0  0  0  0  0  0  0  0  0  0  0  0  0  0  0  0
+          0  0  0  0  0  0  0  0  0  0  0  0  0  0  0  0  0
++         8  7  7  9  8  7  8  6  8  7  7  7  7  7  7  7  8
++         8  7  8  7  7  7  7  7  7  7  8  7  7  7  8 10 10
++        10 10 11  7  8  8  8  9  7  8  8  9  9  9  7  8  7
++         8  0  0  0  0  0  0  0  0  0  0  0  0  0  0  0  0
++         0  0  0  0  0  0  0  0  0  0  0  0  0  0  0  0  0
%c M  cc GPS ccc cccc cccc cccc cccc ccccc ccccc ccccc ccccc
%c cc cc ccc ccc cccc cccc cccc cccc ccccc ccccc ccccc ccccc
%f  0.0000000  0.000000000  0.00000000000  0.000000000000000
%f  0.0000000  0.000000000  0.00000000000  0.000000000000000
%i    0    0    0    0      0      0      0      0         0
%i    0    0    0    0      0      0      0      0         0
/* IAC                                ULTRA-RAPID PREDICTION
/* S/V CLOCKS ARE ALIGNED TO GNSS TIME                      
/* G:C1WC2W R:C1PC2P E:C1XC5X C:C2IC6I J:C1CC2S             
/* PCV:IGS20_2317 OL/AL:FES2004  NONE     YN ORB:CoN CLK:CoN
*  2024 12 19  6 30  0.00000000
PG02    142.439986  15386.042087 -21133.176363   -288.580541
PG03  10262.413124  21754.503687 -11551.035548    627.837423
PG04   1142.000791  23556.353368  12081.093183    498.221170
PG05   3157.261405 -16218.622010  20605.276378   -196.449421
PG06  26037.231199  -5505.190549   -813.194087    -55.161425
PG07  17275.552782   9374.763014  18600.466194    -15.145923
PG08  -5550.765368  25705.164449   -971.949642    441.853166
PG09   8429.916977  17561.568929  17931.541363    493.215874
PG10 -20426.716033  -6207.007970 -15786.552054   -240.417797
PG11  20590.437541 -12245.805592  11441.356947   -752.704385
PG12  -5714.310809 -22005.249551 -14060.159609   -559.257674
PG13  13688.570939 -21954.466462   5179.435907    690.488753
PG14  21379.080191   9363.684386 -12848.506471    563.080295
PG15   1768.662684 -26386.699896  -1866.410413    241.325356
PG16  -9620.776227  11834.610980  21353.256614    -99.597674
PG17  15286.931571    903.255506 -21310.536565    512.871673
PG18 -19216.417589  -7372.805407  16945.991225   -660.098524
PG19  17131.250453  -9144.848966 -18058.138855    575.574153
PG20  13813.297425  -8430.396328  21122.580954    367.771190
PG21  -6417.786076  16433.905948 -19101.042549     96.977338
PG22  18532.509125   2485.768372 -18352.137812    -87.272634
PG23 -20546.128557 -16593.285323  -3783.481919    386.481827
PG24   1571.275397 -16929.504905 -20792.459090   -472.242049
PG25 -17027.179826 -20342.541420  -3424.544361    497.926395
PG26 -17986.923077   3348.165837  19197.228775    -14.345243
PG27 -12505.610493  21129.938244   9244.371715    -34.049335
PG28 -25885.376994   5086.609447  -3129.215184   -512.238938
PG29  -6841.004127 -17874.640479  18319.739643   -554.698655
PG30  24934.726356    997.067984   9628.801752   -258.175051
PG31 -23792.083874  10173.157233   6537.040009   -219.687452
PG32 -15894.806351   3603.971155 -20705.903123   -556.655964
PR01   4155.074757  24983.871293   3069.783482    108.284887
PR02   9459.236428  15196.225455  18183.355628    -39.041999
PR03  10478.353844  -3693.060375  23012.147616    113.532249
PR04   5709.585482 -19684.264979  15228.512385    269.072920
PR05  -1937.906866 -25440.983522   -688.104844    142.409938
PR07 -10406.075179   3973.338421 -22902.786850     97.217519
PR08  -5439.476127  19918.141791 -14889.393283     -6.125450
PR09 -22051.215933 -11951.314394  -4385.878737    227.088696
PR11 -11206.080200   6337.345317  22023.221707      4.113602
PR12   8673.555155  14307.674271  19266.039554     48.593681
PR14  22018.556078   3470.206595 -12414.042157     27.457540
PR15   9637.359157  -7396.848621 -22417.557402     73.056572
PR16  -8601.741055 -14130.859505 -19400.469165     31.741799
PR17  21686.563908  -9439.979122  -9483.730845    149.812745
PR18  18629.013488 -16042.584817   6916.307903    177.563549
PR19   8231.089887 -15013.790862  18912.965069   -302.439950
PR20 -12090.262966  -4196.955571  22073.475726   -123.431077
PR21 -21592.576136   8568.940817  10574.155921   -160.774909
PR22 -18219.055798  15943.043118  -7985.864270    -46.609422
PR24  12945.594875   3589.701271 -21656.006789    -84.650595
PR26  -6093.587805  18612.612333 -16333.039018   -132.618919
*  2024 12 19  6 45  0.00000000
PG02  -2204.011041  16191.589439 -20386.753109   -288.572545
PG03   9148.935955  20853.154803 -13927.648552    627.845235
PG04    590.301362  24689.348505   9585.180336    498.226693
PG05   5030.005213 -14658.178453  21386.691290   -196.450469
PG06  25823.830661  -5277.979152  -3702.011199    -55.187040
PG07  15291.269693  10050.542768  19935.149974    -15.144902
PG08  -5851.222086  25574.018878   1889.006620    441.861075
PG09   7841.783677  19448.462409  16167.793357    493.230273
PG10 -21563.034052  -7481.692535 -13635.300150   -240.431769
PG11  21769.185800 -12302.456098   8903.566866   -752.704519
PG12  -4460.756174 -20873.770152 -16125.439519   -559.259787
PG13  13607.428814 -21142.416981   7939.501602    690.489992
PG14  22150.792607  10481.353864 -10489.417029    563.087100
PG15   2099.435834 -26355.620496    950.856294    241.329409
PG16 -11307.340717   9945.804257  21527.051742    -99.589120
PG17  14541.831160   3330.965852 -21566.254587    512.857049
PG18 -17295.116820  -8003.388337  18628.443747   -660.098012
PG19  16534.442330  -7087.588589 -19530.075330    575.577932
PG20  15724.566394  -7052.659019  20258.285558    367.770902
PG21  -8545.354247  17056.893290 -17596.794833     96.979428
PG22  19764.023662   4178.524763 -16693.067694    -87.274805
PG23 -20627.293768 -16905.848747   -915.531580    386.488744
PG24   3706.740780 -17651.516271 -19843.098055   -472.239155
PG25 -16481.271636 -20186.831469  -6171.615788    497.925969
PG26 -19561.981055   1874.030113  17857.383897    -14.358098
PG27 -12470.020969  19846.895746  11757.314281    -34.049022
PG28 -25469.697907   4692.129076  -5922.534758   -512.248463
PG29  -6070.239867 -19734.504703  16594.946353   -554.695834
PG30  23839.385253   1585.827851  12034.211454   -258.167721
PG31 -24447.669256  10093.780715   3797.971735   -219.686795
PG32 -15389.763998   1198.456462 -21367.223982   -556.650363
PR01   4331.879020  25141.514755   -137.829009    108.286225
PR02   9785.039626  17279.298185  16010.004983    -39.041766
PR03  10782.265651   -872.086675  23146.031642    113.532918
PR04   5777.484482 -17665.564306  17509.849736    269.074397
PR05  -2113.690889 -25310.618468   2537.281906    142.410564
PR07 -10709.748252   1140.530996 -23082.790248     97.218250
PR08  -5540.028685  17923.337277 -17201.949187     -6.125424
PR09 -21398.350814 -11605.526407  -7465.698362    227.090727
PR11 -13661.052981   5350.128848  20867.213699      4.112375
PR12   6430.949134  13270.786436  20826.554980     48.594149
PR14  23310.929344   3902.162867  -9612.912252     27.457666
PR15  12141.644815  -6355.236130 -21502.907635     73.056309
PR16  -6339.285006 -13084.740950 -20946.422396     31.742086
PR17  20499.116897  -8775.783258 -12333.587443    149.815749
PR18  19049.819380 -16584.234640   3769.551549    177.565311
PR19   9997.334870 -16346.493472  16842.505571   -302.441348
PR20  -9742.140967  -5677.688482  22892.118884   -123.431594
PR21 -20291.970460   7851.732749  13343.566728   -160.777734
PR22 -18804.587485  16505.219644  -4903.196851    -46.620993
PR24  10715.529655   5170.358971 -22537.030704    -84.651907
PR26  -6230.179697  16463.538268 -18448.029371   -132.618609
EOF
